ONEWEB-0373             
1 49299U 21090W   26112.73433708  .00000032  00000+0  46321-4 0  9996
2 49299  87.9136 285.5106 0001716  96.4983 263.6346 13.20769788223705
ONEWEB-0374             
1 49300U 21090X   26113.00945041 -.00000223  00000+0 -63481-3 0  9997
2 49300  87.8930 300.7091 0001935 109.4645 250.6694 13.14503126220316
ONEWEB-0375             
1 49301U 21090Y   26113.02472425 -.00000107  00000+0 -29580-3 0  9994
2 49301  87.9141 285.4426 0001816 112.5089 247.6237 13.20769753223249
ONEWEB-0376             
1 49302U 21090Z   26112.99366610  .00000069  00000+0  14023-3 0  9999
2 49302  87.9162 315.9696 0001909  82.9496 277.1853 13.19724908219176
ONEWEB-0377             
1 49303U 21090AA  26112.70765086 -.00000025  00000+0 -92532-4 0  9995
2 49303  87.9139 285.5076 0001558  95.6860 264.4451 13.20769813223197
ONEWEB-0378             
1 49304U 21090AB  26112.88123811  .00000091  00000+0  19225-3 0  9997
2 49304  87.9132 285.4811 0001825  98.2071 261.9269 13.20769110222487
ONEWEB-0379             
1 49305U 21090AC  26113.00469528 -.00000242  00000+0 -68670-3 0  9999
2 49305  87.8929 300.7212 0001826  94.7800 265.3538 13.14502404220310
ONEWEB-0380             
1 49306U 21090AD  26112.99049334  .00000113  00000+0  25044-3 0  9999
2 49306  87.9155 315.9804 0001574  92.8860 267.2452 13.19723578219140
ONEWEB-0381             
1 49307U 21090AE  26113.00736767 -.00000115  00000+0 -31456-3 0  9994
2 49307  87.9141 285.4521 0001823 102.8330 257.3007 13.20772849222545
ONEWEB-0382             
1 49308U 21090AF  26112.91898681 -.00000056  00000+0 -16875-3 0  9990
2 49308  87.9138 285.4654 0001943 103.0611 257.0739 13.20772266222527
ONEWEB-0383             
1 49309U 21090AG  26112.92223685 -.00000197  00000+0 -56681-3 0  9993
2 49309  87.8940 300.7252 0001911  94.3545 265.7803 13.14501283220333
ONEWEB-0384             
1 49310U 21090AH  26112.90908192  .00000035  00000+0  53017-4 0  9996
2 49310  87.9142 285.5103 0002154 106.9463 253.1907 13.20810023222536
ONEWEB-0385             
1 49311U 21090AJ  26112.91109396 -.00000001  00000+0 -34260-4 0  9991
2 49311  87.9140 285.4716 0001875 100.1312 260.0033 13.20769230222509
ONEWEB-0386             
1 49312U 21090AK  26113.00420862 -.00000093  00000+0 -26182-3 0  9991
2 49312  87.9148 285.4407 0001993 100.3389 259.7969 13.20769273222535
ONEWEB-0387             
1 49313U 21090AL  26112.91267622 -.00000004  00000+0 -41251-4 0  9991
2 49313  87.9130 285.4893 0001573 103.2388 256.8921 13.20770311222521
ONEWEB-0388             
1 49314U 21090AM  26112.98575597  .00000067  00000+0  13516-3 0  9991
2 49314  87.9157 315.9792 0001869  91.6478 268.4869 13.19723639219138
