[{"OBJECT_NAME":"ONEWEB-0373","OBJECT_ID":"2021-090W","EPOCH":"2026-04-22T17:37:26.723712","MEAN_MOTION":13.20769788,"ECCENTRICITY":0.0001716,"INCLINATION":87.9136,"RA_OF_ASC_NODE":285.5106,"ARG_OF_PERICENTER":96.4983,"MEAN_ANOMALY":263.6346,"EPHEMERIS_TYPE":0,"CLASSIFICATION_TYPE":"U","NORAD_CAT_ID":49299,"ELEMENT_SET_NO":999,"REV_AT_EPOCH":22370,"BSTAR":4.6321000000000006e-05,"MEAN_MOTION_DOT":3.2e-07,"MEAN_MOTION_DDOT":0.0},{"OBJECT_NAME":"ONEWEB-0374","OBJECT_ID":"2021-090X","EPOCH":"2026-04-23T00:13:36.515424","MEAN_MOTION":13.14503126,"ECCENTRICITY":0.0001935,"INCLINATION":87.893,"RA_OF_ASC_NODE":300.7091,"ARG_OF_PERICENTER":109.4645,"MEAN_ANOMALY":250.6694,"EPHEMERIS_TYPE":0,"CLASSIFICATION_TYPE":"U","NORAD_CAT_ID":49300,"ELEMENT_SET_NO":999,"REV_AT_EPOCH":22031,"BSTAR":-0.00063481,"MEAN_MOTION_DOT":-2.23e-06,"MEAN_MOTION_DDOT":0.0},{"OBJECT_NAME":"ONEWEB-0375","OBJECT_ID":"2021-090Y","EPOCH":"2026-04-23T00:35:36.175200","MEAN_MOTION":13.20769753,"ECCENTRICITY":0.0001816,"INCLINATION":87.9141,"RA_OF_ASC_NODE":285.4426,"ARG_OF_PERICENTER":112.5089,"MEAN_ANOMALY":247.6237,"EPHEMERIS_TYPE":0,"CLASSIFICATION_TYPE":"U","NORAD_CAT_ID":49301,"ELEMENT_SET_NO":999,"REV_AT_EPOCH":22324,"BSTAR":-0.00029580000000000003,"MEAN_MOTION_DOT":-1.07e-06,"MEAN_MOTION_DDOT":0.0},{"OBJECT_NAME":"ONEWEB-0376","OBJECT_ID":"2021-090Z","EPOCH":"2026-04-22T23:50:52.751040","MEAN_MOTION":13.19724908,"ECCENTRICITY":0.0001909,"INCLINATION":87.9162,"RA_OF_ASC_NODE":315.9696,"ARG_OF_PERICENTER":82.9496,"MEAN_ANOMALY":277.1853,"EPHEMERIS_TYPE":0,"CLASSIFICATION_TYPE":"U","NORAD_CAT_ID":49302,"ELEMENT_SET_NO":999,"REV_AT_EPOCH":21917,"BSTAR":0.00014023,"MEAN_MOTION_DOT":6.9e-07,"MEAN_MOTION_DDOT":0.0},{"OBJECT_NAME":"ONEWEB-0377","OBJECT_ID":"2021-090AA","EPOCH":"2026-04-22T16:59:01.034304","MEAN_MOTION":13.20769813,"ECCENTRICITY":0.0001558,"INCLINATION":87.9139,"RA_OF_ASC_NODE":285.5076,"ARG_OF_PERICENTER":95.686,"MEAN_ANOMALY":264.4451,"EPHEMERIS_TYPE":0,"CLASSIFICATION_TYPE":"U","NORAD_CAT_ID":49303,"ELEMENT_SET_NO":999,"REV_AT_EPOCH":22319,"BSTAR":-9.2532e-05,"MEAN_MOTION_DOT":-2.5e-07,"MEAN_MOTION_DDOT":0.0},{"OBJECT_NAME":"ONEWEB-0378","OBJECT_ID":"2021-090AB","EPOCH":"2026-04-22T21:08:58.972704","MEAN_MOTION":13.2076911,"ECCENTRICITY":0.0001825,"INCLINATION":87.9132,"RA_OF_ASC_NODE":285.4811,"ARG_OF_PERICENTER":98.2071,"MEAN_ANOMALY":261.9269,"EPHEMERIS_TYPE":0,"CLASSIFICATION_TYPE":"U","NORAD_CAT_ID":49304,"ELEMENT_SET_NO":999,"REV_AT_EPOCH":22248,"BSTAR":0.00019225,"MEAN_MOTION_DOT":9.1e-07,"MEAN_MOTION_DDOT":0.0},{"OBJECT_NAME":"ONEWEB-0379","OBJECT_ID":"2021-090AC","EPOCH":"2026-04-23T00:06:45.672192","MEAN_MOTION":13.14502404,"ECCENTRICITY":0.0001826,"INCLINATION":87.8929,"RA_OF_ASC_NODE":300.7212,"ARG_OF_PERICENTER":94.78,"MEAN_ANOMALY":265.3538,"EPHEMERIS_TYPE":0,"CLASSIFICATION_TYPE":"U","NORAD_CAT_ID":49305,"ELEMENT_SET_NO":999,"REV_AT_EPOCH":22031,"BSTAR":-0.0006866999999999999,"MEAN_MOTION_DOT":-2.42e-06,"MEAN_MOTION_DDOT":0.0},{"OBJECT_NAME":"ONEWEB-0380","OBJECT_ID":"2021-090AD","EPOCH":"2026-04-22T23:46:18.624576","MEAN_MOTION":13.19723578,"ECCENTRICITY":0.0001574,"INCLINATION":87.9155,"RA_OF_ASC_NODE":315.9804,"ARG_OF_PERICENTER":92.886,"MEAN_ANOMALY":267.2452,"EPHEMERIS_TYPE":0,"CLASSIFICATION_TYPE":"U","NORAD_CAT_ID":49306,"ELEMENT_SET_NO":999,"REV_AT_EPOCH":21914,"BSTAR":0.00025044,"MEAN_MOTION_DOT":1.13e-06,"MEAN_MOTION_DDOT":0.0},{"OBJECT_NAME":"ONEWEB-0381","OBJECT_ID":"2021-090AE","EPOCH":"2026-04-23T00:10:36.566688","MEAN_MOTION":13.20772849,"ECCENTRICITY":0.0001823,"INCLINATION":87.9141,"RA_OF_ASC_NODE":285.4521,"ARG_OF_PERICENTER":102.833,"MEAN_ANOMALY":257.3007,"EPHEMERIS_TYPE":0,"CLASSIFICATION_TYPE":"U","NORAD_CAT_ID":49307,"ELEMENT_SET_NO":999,"REV_AT_EPOCH":22254,"BSTAR":-0.00031456,"MEAN_MOTION_DOT":-1.15e-06,"MEAN_MOTION_DDOT":0.0},{"OBJECT_NAME":"ONEWEB-0382","OBJECT_ID":"2021-090AF","EPOCH":"2026-04-22T22:03:20.460384","MEAN_MOTION":13.20772266,"ECCENTRICITY":0.0001943,"INCLINATION":87.9138,"RA_OF_ASC_NODE":285.4654,"ARG_OF_PERICENTER":103.0611,"MEAN_ANOMALY":257.0739,"EPHEMERIS_TYPE":0,"CLASSIFICATION_TYPE":"U","NORAD_CAT_ID":49308,"ELEMENT_SET_NO":999,"REV_AT_EPOCH":22252,"BSTAR":-0.00016875,"MEAN_MOTION_DOT":-5.6e-07,"MEAN_MOTION_DDOT":0.0},{"OBJECT_NAME":"ONEWEB-0383","OBJECT_ID":"2021-090AG","EPOCH":"2026-04-22T22:08:01.263840","MEAN_MOTION":13.14501283,"ECCENTRICITY":0.0001911,"INCLINATION":87.894,"RA_OF_ASC_NODE":300.7252,"ARG_OF_PERICENTER":94.3545,"MEAN_ANOMALY":265.7803,"EPHEMERIS_TYPE":0,"CLASSIFICATION_TYPE":"U","NORAD_CAT_ID":49309,"ELEMENT_SET_NO":999,"REV_AT_EPOCH":22033,"BSTAR":-0.0005668100000000001,"MEAN_MOTION_DOT":-1.97e-06,"MEAN_MOTION_DDOT":0.0},{"OBJECT_NAME":"ONEWEB-0384","OBJECT_ID":"2021-090AH","EPOCH":"2026-04-22T21:49:04.677888","MEAN_MOTION":13.20810023,"ECCENTRICITY":0.0002154,"INCLINATION":87.9142,"RA_OF_ASC_NODE":285.5103,"ARG_OF_PERICENTER":106.9463,"MEAN_ANOMALY":253.1907,"EPHEMERIS_TYPE":0,"CLASSIFICATION_TYPE":"U","NORAD_CAT_ID":49310,"ELEMENT_SET_NO":999,"REV_AT_EPOCH":22253,"BSTAR":5.3017000000000004e-05,"MEAN_MOTION_DOT":3.5e-07,"MEAN_MOTION_DDOT":0.0},{"OBJECT_NAME":"ONEWEB-0385","OBJECT_ID":"2021-090AJ","EPOCH":"2026-04-22T21:51:58.518144","MEAN_MOTION":13.2076923,"ECCENTRICITY":0.0001875,"INCLINATION":87.914,"RA_OF_ASC_NODE":285.4716,"ARG_OF_PERICENTER":100.1312,"MEAN_ANOMALY":260.0033,"EPHEMERIS_TYPE":0,"CLASSIFICATION_TYPE":"U","NORAD_CAT_ID":49311,"ELEMENT_SET_NO":999,"REV_AT_EPOCH":22250,"BSTAR":-3.426e-05,"MEAN_MOTION_DOT":-1e-08,"MEAN_MOTION_DDOT":0.0},{"OBJECT_NAME":"ONEWEB-0386","OBJECT_ID":"2021-090AK","EPOCH":"2026-04-23T00:06:03.624768","MEAN_MOTION":13.20769273,"ECCENTRICITY":0.0001993,"INCLINATION":87.9148,"RA_OF_ASC_NODE":285.4407,"ARG_OF_PERICENTER":100.3389,"MEAN_ANOMALY":259.7969,"EPHEMERIS_TYPE":0,"CLASSIFICATION_TYPE":"U","NORAD_CAT_ID":49312,"ELEMENT_SET_NO":999,"REV_AT_EPOCH":22253,"BSTAR":-0.00026182,"MEAN_MOTION_DOT":-9.3e-07,"MEAN_MOTION_DDOT":0.0},{"OBJECT_NAME":"ONEWEB-0387","OBJECT_ID":"2021-090AL","EPOCH":"2026-04-22T21:54:15.225408","MEAN_MOTION":13.20770311,"ECCENTRICITY":0.0001573,"INCLINATION":87.913,"RA_OF_ASC_NODE":285.4893,"ARG_OF_PERICENTER":103.2388,"MEAN_ANOMALY":256.8921,"EPHEMERIS_TYPE":0,"CLASSIFICATION_TYPE":"U","NORAD_CAT_ID":49313,"ELEMENT_SET_NO":999,"REV_AT_EPOCH":22252,"BSTAR":-4.1251e-05,"MEAN_MOTION_DOT":-4e-08,"MEAN_MOTION_DDOT":0.0},{"OBJECT_NAME":"ONEWEB-0388","OBJECT_ID":"2021-090AM","EPOCH":"2026-04-22T23:39:29.315808","MEAN_MOTION":13.19723639,"ECCENTRICITY":0.0001869,"INCLINATION":87.9157,"RA_OF_ASC_NODE":315.9792,"ARG_OF_PERICENTER":91.6478,"MEAN_ANOMALY":268.4869,"EPHEMERIS_TYPE":0,"CLASSIFICATION_TYPE":"U","NORAD_CAT_ID":49314,"ELEMENT_SET_NO":999,"REV_AT_EPOCH":21913,"BSTAR":0.00013516,"MEAN_MOTION_DOT":6.7e-07,"MEAN_MOTION_DDOT":0.0}]